{
  "type": "FeatureCollection",
  "features": [
    {
      "type": "Feature",
      "properties": {
        "district": "cheongna",
        "name": "청라 샘플 업무권역"
      },
      "geometry": {
        "type": "Polygon",
        "coordinates": [
          [
            [
              126.6048,
              37.5484
            ],
            [
              126.6682,
              37.5446
            ],
            [
              126.6677,
              37.5054
            ],
            [
              126.6171,
              37.4968
            ],
            [
              126.5897,
              37.5187
            ],
            [
              126.6048,
              37.5484
            ]
          ]
        ]
      }
    }
  ]
}