{
  "type": "FeatureCollection",
  "features": [
    {
      "type": "Feature",
      "properties": {
        "district": "pangyo",
        "name": "판교 샘플 업무권역"
      },
      "geometry": {
        "type": "Polygon",
        "coordinates": [
          [
            [
              127.0859,
              37.4126
            ],
            [
              127.1243,
              37.4161
            ],
            [
              127.1248,
              37.3882
            ],
            [
              127.0898,
              37.3831
            ],
            [
              127.0758,
              37.3959
            ],
            [
              127.0859,
              37.4126
            ]
          ]
        ]
      }
    }
  ]
}