{
  "type": "FeatureCollection",
  "features": [
    {
      "type": "Feature",
      "properties": {
        "id": 1,
        "district": "pangyo",
        "name": "pangyo_office_1",
        "useType": "office",
        "useTypeName": "업무시설",
        "floors": 3,
        "workers": 10174,
        "parking": 226,
        "totalArea": 50869,
        "color": "#4A90D9"
      },
      "geometry": {
        "type": "Polygon",
        "coordinates": [
          [
            [
              127.09074465594827,
              37.39111058697157
            ],
            [
              127.08853650800611,
              37.391888531223444
            ],
            [
              127.0878082172519,
              37.38982132174625
            ],
            [
              127.09001636519406,
              37.389043377494374
            ],
            [
              127.09074465594827,
              37.39111058697157
            ]
          ]
        ]
      }
    },
    {
      "type": "Feature",
      "properties": {
        "id": 2,
        "district": "pangyo",
        "name": "pangyo_office_2",
        "useType": "office",
        "useTypeName": "업무시설",
        "floors": 8,
        "workers": 4111,
        "parking": 239,
        "totalArea": 43206,
        "color": "#4A90D9"
      },
      "geometry": {
        "type": "Polygon",
        "coordinates": [
          [
            [
              127.08868642889254,
              37.40287600624226
            ],
            [
              127.08756140821141,
              37.404410987106495
            ],
            [
              127.08571433865976,
              37.40305722987504
            ],
            [
              127.08683935934089,
              37.4015222490108
            ],
            [
              127.08868642889254,
              37.40287600624226
            ]
          ]
        ]
      }
    },
    {
      "type": "Feature",
      "properties": {
        "id": 3,
        "district": "pangyo",
        "name": "pangyo_office_3",
        "useType": "office",
        "useTypeName": "업무시설",
        "floors": 7,
        "workers": 5052,
        "parking": 89,
        "totalArea": 12869,
        "color": "#4A90D9"
      },
      "geometry": {
        "type": "Polygon",
        "coordinates": [
          [
            [
              127.10584597481248,
              37.410334544552995
            ],
            [
              127.10554497895737,
              37.41075396362281
            ],
            [
              127.10350206220734,
              37.40928786558774
            ],
            [
              127.10380305806245,
              37.40886844651793
            ],
            [
              127.10584597481248,
              37.410334544552995
            ]
          ]
        ]
      }
    },
    {
      "type": "Feature",
      "properties": {
        "id": 4,
        "district": "pangyo",
        "name": "pangyo_office_4",
        "useType": "office",
        "useTypeName": "업무시설",
        "floors": 7,
        "workers": 10391,
        "parking": 145,
        "totalArea": 10859,
        "color": "#4A90D9"
      },
      "geometry": {
        "type": "Polygon",
        "coordinates": [
          [
            [
              127.08684335997255,
              37.407643260877244
            ],
            [
              127.08716723744824,
              37.408325846000835
            ],
            [
              127.08585738871399,
              37.40894735163719
            ],
            [
              127.0855335112383,
              37.4082647665136
            ],
            [
              127.08684335997255,
              37.407643260877244
            ]
          ]
        ]
      }
    },
    {
      "type": "Feature",
      "properties": {
        "id": 5,
        "district": "pangyo",
        "name": "pangyo_office_5",
        "useType": "office",
        "useTypeName": "업무시설",
        "floors": 10,
        "workers": 5303,
        "parking": 195,
        "totalArea": 53514,
        "color": "#4A90D9"
      },
      "geometry": {
        "type": "Polygon",
        "coordinates": [
          [
            [
              127.11636748900895,
              37.405780970574526
            ],
            [
              127.11705292047033,
              37.4074891516183
            ],
            [
              127.11433108177192,
              37.408581327347264
            ],
            [
              127.11364565031054,
              37.40687314630349
            ],
            [
              127.11636748900895,
              37.405780970574526
            ]
          ]
        ]
      }
    },
    {
      "type": "Feature",
      "properties": {
        "id": 6,
        "district": "pangyo",
        "name": "pangyo_office_6",
        "useType": "office",
        "useTypeName": "업무시설",
        "floors": 3,
        "workers": 14513,
        "parking": 129,
        "totalArea": 6517,
        "color": "#4A90D9"
      },
      "geometry": {
        "type": "Polygon",
        "coordinates": [
          [
            [
              127.10432345558782,
              37.40577979459869
            ],
            [
              127.10470105733134,
              37.40626466787677
            ],
            [
              127.10385705464735,
              37.40692194659149
            ],
            [
              127.10347945290383,
              37.40643707331341
            ],
            [
              127.10432345558782,
              37.40577979459869
            ]
          ]
        ]
      }
    },
    {
      "type": "Feature",
      "properties": {
        "id": 7,
        "district": "pangyo",
        "name": "pangyo_office_7",
        "useType": "office",
        "useTypeName": "업무시설",
        "floors": 7,
        "workers": 3932,
        "parking": 146,
        "totalArea": 41866,
        "color": "#4A90D9"
      },
      "geometry": {
        "type": "Polygon",
        "coordinates": [
          [
            [
              127.11817742692413,
              37.3941172171724
            ],
            [
              127.11960228505156,
              37.39491608243763
            ],
            [
              127.11833797241788,
              37.39717111368018
            ],
            [
              127.11691311429045,
              37.39637224841495
            ],
            [
              127.11817742692413,
              37.3941172171724
            ]
          ]
        ]
      }
    },
    {
      "type": "Feature",
      "properties": {
        "id": 8,
        "district": "pangyo",
        "name": "pangyo_office_8",
        "useType": "office",
        "useTypeName": "업무시설",
        "floors": 5,
        "workers": 3177,
        "parking": 246,
        "totalArea": 14041,
        "color": "#4A90D9"
      },
      "geometry": {
        "type": "Polygon",
        "coordinates": [
          [
            [
              127.1112632372226,
              37.40543149775091
            ],
            [
              127.1111906044313,
              37.40610610522301
            ],
            [
              127.10911515349633,
              37.40588264817451
            ],
            [
              127.10918778628763,
              37.40520804070241
            ],
            [
              127.1112632372226,
              37.40543149775091
            ]
          ]
        ]
      }
    },
    {
      "type": "Feature",
      "properties": {
        "id": 9,
        "district": "pangyo",
        "name": "pangyo_office_9",
        "useType": "office",
        "useTypeName": "업무시설",
        "floors": 5,
        "workers": 13964,
        "parking": 26,
        "totalArea": 57160,
        "color": "#4A90D9"
      },
      "geometry": {
        "type": "Polygon",
        "coordinates": [
          [
            [
              127.1088465521387,
              37.40175774071571
            ],
            [
              127.10716038375935,
              37.40318872849625
            ],
            [
              127.105473424327,
              37.40120094237342
            ],
            [
              127.10715959270635,
              37.399769954592884
            ],
            [
              127.1088465521387,
              37.40175774071571
            ]
          ]
        ]
      }
    },
    {
      "type": "Feature",
      "properties": {
        "id": 10,
        "district": "pangyo",
        "name": "pangyo_office_10",
        "useType": "office",
        "useTypeName": "업무시설",
        "floors": 13,
        "workers": 5655,
        "parking": 118,
        "totalArea": 18359,
        "color": "#4A90D9"
      },
      "geometry": {
        "type": "Polygon",
        "coordinates": [
          [
            [
              127.1166774946579,
              37.39630457253549
            ],
            [
              127.11653808568207,
              37.39695527790054
            ],
            [
              127.11381699381765,
              37.39637230340798
            ],
            [
              127.11395640279349,
              37.39572159804293
            ],
            [
              127.1166774946579,
              37.39630457253549
            ]
          ]
        ]
      }
    },
    {
      "type": "Feature",
      "properties": {
        "id": 11,
        "district": "pangyo",
        "name": "pangyo_office_11",
        "useType": "office",
        "useTypeName": "업무시설",
        "floors": 5,
        "workers": 12705,
        "parking": 297,
        "totalArea": 45499,
        "color": "#4A90D9"
      },
      "geometry": {
        "type": "Polygon",
        "coordinates": [
          [
            [
              127.10758740158226,
              37.39457126452128
            ],
            [
              127.10946343849375,
              37.396631443534844
            ],
            [
              127.10824558761664,
              37.397740440948716
            ],
            [
              127.10636955070515,
              37.395680261935155
            ],
            [
              127.10758740158226,
              37.39457126452128
            ]
          ]
        ]
      }
    },
    {
      "type": "Feature",
      "properties": {
        "id": 12,
        "district": "pangyo",
        "name": "pangyo_office_12",
        "useType": "office",
        "useTypeName": "업무시설",
        "floors": 4,
        "workers": 8848,
        "parking": 262,
        "totalArea": 30509,
        "color": "#4A90D9"
      },
      "geometry": {
        "type": "Polygon",
        "coordinates": [
          [
            [
              127.10276868443671,
              37.40662714340431
            ],
            [
              127.10342869057081,
              37.408052870805854
            ],
            [
              127.10165108995068,
              37.40887576816475
            ],
            [
              127.10099108381658,
              37.4074500407632
            ],
            [
              127.10276868443671,
              37.40662714340431
            ]
          ]
        ]
      }
    },
    {
      "type": "Feature",
      "properties": {
        "id": 13,
        "district": "pangyo",
        "name": "pangyo_office_13",
        "useType": "office",
        "useTypeName": "업무시설",
        "floors": 8,
        "workers": 10263,
        "parking": 249,
        "totalArea": 38244,
        "color": "#4A90D9"
      },
      "geometry": {
        "type": "Polygon",
        "coordinates": [
          [
            [
              127.08011150738841,
              37.402797599553246
            ],
            [
              127.0825424745909,
              37.40328931351269
            ],
            [
              127.08223410738594,
              37.40481383919916
            ],
            [
              127.07980314018346,
              37.404322125239716
            ],
            [
              127.08011150738841,
              37.402797599553246
            ]
          ]
        ]
      }
    },
    {
      "type": "Feature",
      "properties": {
        "id": 14,
        "district": "pangyo",
        "name": "pangyo_office_14",
        "useType": "office",
        "useTypeName": "업무시설",
        "floors": 3,
        "workers": 5308,
        "parking": 232,
        "totalArea": 21316,
        "color": "#4A90D9"
      },
      "geometry": {
        "type": "Polygon",
        "coordinates": [
          [
            [
              127.11203736127636,
              37.40501414264639
            ],
            [
              127.1112478608975,
              37.406678841440815
            ],
            [
              127.11019337702093,
              37.40617874170936
            ],
            [
              127.11098287739979,
              37.40451404291493
            ],
            [
              127.11203736127636,
              37.40501414264639
            ]
          ]
        ]
      }
    },
    {
      "type": "Feature",
      "properties": {
        "id": 15,
        "district": "pangyo",
        "name": "pangyo_office_15",
        "useType": "office",
        "useTypeName": "업무시설",
        "floors": 3,
        "workers": 14762,
        "parking": 162,
        "totalArea": 69849,
        "color": "#4A90D9"
      },
      "geometry": {
        "type": "Polygon",
        "coordinates": [
          [
            [
              127.11241996121136,
              37.40541404409244
            ],
            [
              127.11234926603596,
              37.40834291126575
            ],
            [
              127.10994506079702,
              37.408284880054026
            ],
            [
              127.11001575597241,
              37.405356012880716
            ],
            [
              127.11241996121136,
              37.40541404409244
            ]
          ]
        ]
      }
    },
    {
      "type": "Feature",
      "properties": {
        "id": 16,
        "district": "pangyo",
        "name": "pangyo_office_16",
        "useType": "office",
        "useTypeName": "업무시설",
        "floors": 14,
        "workers": 9189,
        "parking": 10,
        "totalArea": 14185,
        "color": "#4A90D9"
      },
      "geometry": {
        "type": "Polygon",
        "coordinates": [
          [
            [
              127.11695467326653,
              37.39898356403618
            ],
            [
              127.1178262460427,
              37.39946825343702
            ],
            [
              127.11712892285435,
              37.40072218617434
            ],
            [
              127.11625735007819,
              37.4002374967735
            ],
            [
              127.11695467326653,
              37.39898356403618
            ]
          ]
        ]
      }
    },
    {
      "type": "Feature",
      "properties": {
        "id": 17,
        "district": "pangyo",
        "name": "pangyo_office_17",
        "useType": "office",
        "useTypeName": "업무시설",
        "floors": 14,
        "workers": 5538,
        "parking": 132,
        "totalArea": 10878,
        "color": "#4A90D9"
      },
      "geometry": {
        "type": "Polygon",
        "coordinates": [
          [
            [
              127.10557014516537,
              37.399908995650144
            ],
            [
              127.10479130469788,
              37.39994493677283
            ],
            [
              127.10472642411172,
              37.39853898107976
            ],
            [
              127.10550526457921,
              37.39850303995707
            ],
            [
              127.10557014516537,
              37.399908995650144
            ]
          ]
        ]
      }
    },
    {
      "type": "Feature",
      "properties": {
        "id": 18,
        "district": "pangyo",
        "name": "pangyo_office_18",
        "useType": "office",
        "useTypeName": "업무시설",
        "floors": 9,
        "workers": 9507,
        "parking": 94,
        "totalArea": 57486,
        "color": "#4A90D9"
      },
      "geometry": {
        "type": "Polygon",
        "coordinates": [
          [
            [
              127.09898300926716,
              37.38380230399078
            ],
            [
              127.10119179346657,
              37.38474490709378
            ],
            [
              127.10024405613785,
              37.38696572222814
            ],
            [
              127.09803527193844,
              37.386023119125134
            ],
            [
              127.09898300926716,
              37.38380230399078
            ]
          ]
        ]
      }
    },
    {
      "type": "Feature",
      "properties": {
        "id": 19,
        "district": "pangyo",
        "name": "pangyo_commercial_19",
        "useType": "commercial",
        "useTypeName": "상업시설",
        "floors": 4,
        "workers": 1376,
        "parking": 51,
        "totalArea": 15899,
        "color": "#E8734A"
      },
      "geometry": {
        "type": "Polygon",
        "coordinates": [
          [
            [
              127.08939452075543,
              37.41118068147399
            ],
            [
              127.08920268935425,
              37.41272667024877
            ],
            [
              127.08818102888068,
              37.41259989923764
            ],
            [
              127.08837286028186,
              37.411053910462854
            ],
            [
              127.08939452075543,
              37.41118068147399
            ]
          ]
        ]
      }
    },
    {
      "type": "Feature",
      "properties": {
        "id": 20,
        "district": "pangyo",
        "name": "pangyo_commercial_20",
        "useType": "commercial",
        "useTypeName": "상업시설",
        "floors": 10,
        "workers": 2368,
        "parking": 29,
        "totalArea": 8447,
        "color": "#E8734A"
      },
      "geometry": {
        "type": "Polygon",
        "coordinates": [
          [
            [
              127.09753514645094,
              37.399571006407406
            ],
            [
              127.09792598139715,
              37.400271913769934
            ],
            [
              127.09699866177267,
              37.400788999100946
            ],
            [
              127.09660782682646,
              37.40008809173842
            ],
            [
              127.09753514645094,
              37.399571006407406
            ]
          ]
        ]
      }
    },
    {
      "type": "Feature",
      "properties": {
        "id": 21,
        "district": "pangyo",
        "name": "pangyo_commercial_21",
        "useType": "commercial",
        "useTypeName": "상업시설",
        "floors": 10,
        "workers": 2460,
        "parking": 60,
        "totalArea": 20320,
        "color": "#E8734A"
      },
      "geometry": {
        "type": "Polygon",
        "coordinates": [
          [
            [
              127.09291479727541,
              37.39957892836154
            ],
            [
              127.09276773109833,
              37.40076604655927
            ],
            [
              127.09106719465449,
              37.40055537554583
            ],
            [
              127.09121426083156,
              37.3993682573481
            ],
            [
              127.09291479727541,
              37.39957892836154
            ]
          ]
        ]
      }
    },
    {
      "type": "Feature",
      "properties": {
        "id": 22,
        "district": "pangyo",
        "name": "pangyo_commercial_22",
        "useType": "commercial",
        "useTypeName": "상업시설",
        "floors": 6,
        "workers": 1834,
        "parking": 52,
        "totalArea": 11070,
        "color": "#E8734A"
      },
      "geometry": {
        "type": "Polygon",
        "coordinates": [
          [
            [
              127.08839326899474,
              37.39821818831102
            ],
            [
              127.0876663894661,
              37.39955044481075
            ],
            [
              127.08702046076004,
              37.399198025923326
            ],
            [
              127.08774734028869,
              37.397865769423596
            ],
            [
              127.08839326899474,
              37.39821818831102
            ]
          ]
        ]
      }
    },
    {
      "type": "Feature",
      "properties": {
        "id": 23,
        "district": "pangyo",
        "name": "pangyo_commercial_23",
        "useType": "commercial",
        "useTypeName": "상업시설",
        "floors": 7,
        "workers": 1489,
        "parking": 13,
        "totalArea": 64080,
        "color": "#E8734A"
      },
      "geometry": {
        "type": "Polygon",
        "coordinates": [
          [
            [
              127.09809467717743,
              37.40541729604979
            ],
            [
              127.1001745527103,
              37.40608167769515
            ],
            [
              127.09927374029017,
              37.40890171001456
            ],
            [
              127.0971938647573,
              37.408237328369204
            ],
            [
              127.09809467717743,
              37.40541729604979
            ]
          ]
        ]
      }
    },
    {
      "type": "Feature",
      "properties": {
        "id": 24,
        "district": "pangyo",
        "name": "pangyo_commercial_24",
        "useType": "commercial",
        "useTypeName": "상업시설",
        "floors": 4,
        "workers": 408,
        "parking": 56,
        "totalArea": 24992,
        "color": "#E8734A"
      },
      "geometry": {
        "type": "Polygon",
        "coordinates": [
          [
            [
              127.0880611972882,
              37.388256320668184
            ],
            [
              127.08910050158305,
              37.38950099679992
            ],
            [
              127.087907123436,
              37.3904974672889
            ],
            [
              127.08686781914115,
              37.38925279115717
            ],
            [
              127.0880611972882,
              37.388256320668184
            ]
          ]
        ]
      }
    },
    {
      "type": "Feature",
      "properties": {
        "id": 25,
        "district": "pangyo",
        "name": "pangyo_residential_25",
        "useType": "residential",
        "useTypeName": "주거시설",
        "floors": 1,
        "workers": 11,
        "parking": 96,
        "totalArea": 15729,
        "color": "#50B86C"
      },
      "geometry": {
        "type": "Polygon",
        "coordinates": [
          [
            [
              127.11649697809445,
              37.411112999058744
            ],
            [
              127.11640226880151,
              37.411851724457286
            ],
            [
              127.11428920188926,
              37.411580815844175
            ],
            [
              127.1143839111822,
              37.410842090445634
            ],
            [
              127.11649697809445,
              37.411112999058744
            ]
          ]
        ]
      }
    },
    {
      "type": "Feature",
      "properties": {
        "id": 26,
        "district": "pangyo",
        "name": "pangyo_residential_26",
        "useType": "residential",
        "useTypeName": "주거시설",
        "floors": 1,
        "workers": 21,
        "parking": 48,
        "totalArea": 17577,
        "color": "#50B86C"
      },
      "geometry": {
        "type": "Polygon",
        "coordinates": [
          [
            [
              127.11761630386911,
              37.38761409081332
            ],
            [
              127.11814066014146,
              37.38924602186435
            ],
            [
              127.11715587810349,
              37.38956244248653
            ],
            [
              127.11663152183114,
              37.3879305114355
            ],
            [
              127.11761630386911,
              37.38761409081332
            ]
          ]
        ]
      }
    },
    {
      "type": "Feature",
      "properties": {
        "id": 27,
        "district": "pangyo",
        "name": "pangyo_residential_27",
        "useType": "residential",
        "useTypeName": "주거시설",
        "floors": 9,
        "workers": 84,
        "parking": 91,
        "totalArea": 68761,
        "color": "#50B86C"
      },
      "geometry": {
        "type": "Polygon",
        "coordinates": [
          [
            [
              127.07598767400248,
              37.394115089360284
            ],
            [
              127.0777468204246,
              37.39631438980096
            ],
            [
              127.07582355307596,
              37.39785274664051
            ],
            [
              127.07406440665385,
              37.39565344619983
            ],
            [
              127.07598767400248,
              37.394115089360284
            ]
          ]
        ]
      }
    },
    {
      "type": "Feature",
      "properties": {
        "id": 28,
        "district": "pangyo",
        "name": "pangyo_residential_28",
        "useType": "residential",
        "useTypeName": "주거시설",
        "floors": 1,
        "workers": 95,
        "parking": 40,
        "totalArea": 6689,
        "color": "#50B86C"
      },
      "geometry": {
        "type": "Polygon",
        "coordinates": [
          [
            [
              127.10023766361115,
              37.38919926972678
            ],
            [
              127.09953308194483,
              37.389970001475724
            ],
            [
              127.09905613473097,
              37.38953398951288
            ],
            [
              127.0997607163973,
              37.388763257763934
            ],
            [
              127.10023766361115,
              37.38919926972678
            ]
          ]
        ]
      }
    },
    {
      "type": "Feature",
      "properties": {
        "id": 29,
        "district": "pangyo",
        "name": "pangyo_residential_29",
        "useType": "residential",
        "useTypeName": "주거시설",
        "floors": 3,
        "workers": 8,
        "parking": 76,
        "totalArea": 25707,
        "color": "#50B86C"
      },
      "geometry": {
        "type": "Polygon",
        "coordinates": [
          [
            [
              127.10036828812953,
              37.4097232303433
            ],
            [
              127.10123371856194,
              37.40994575817392
            ],
            [
              127.10051104939659,
              37.41275628253189
            ],
            [
              127.09964561896417,
              37.41253375470127
            ],
            [
              127.10036828812953,
              37.4097232303433
            ]
          ]
        ]
      }
    },
    {
      "type": "Feature",
      "properties": {
        "id": 30,
        "district": "pangyo",
        "name": "pangyo_residential_30",
        "useType": "residential",
        "useTypeName": "주거시설",
        "floors": 10,
        "workers": 66,
        "parking": 40,
        "totalArea": 4188,
        "color": "#50B86C"
      },
      "geometry": {
        "type": "Polygon",
        "coordinates": [
          [
            [
              127.10416656429828,
              37.40210779082654
            ],
            [
              127.1038821673487,
              37.40263537378594
            ],
            [
              127.10326162589524,
              37.402300866968936
            ],
            [
              127.10354602284482,
              37.401773284009536
            ],
            [
              127.10416656429828,
              37.40210779082654
            ]
          ]
        ]
      }
    },
    {
      "type": "Feature",
      "properties": {
        "id": 31,
        "district": "pangyo",
        "name": "pangyo_residential_31",
        "useType": "residential",
        "useTypeName": "주거시설",
        "floors": 5,
        "workers": 58,
        "parking": 40,
        "totalArea": 24903,
        "color": "#50B86C"
      },
      "geometry": {
        "type": "Polygon",
        "coordinates": [
          [
            [
              127.12175154947727,
              37.38857980530052
            ],
            [
              127.12248812354288,
              37.39074861949146
            ],
            [
              127.12144966378088,
              37.391101301861426
            ],
            [
              127.12071308971527,
              37.38893248767049
            ],
            [
              127.12175154947727,
              37.38857980530052
            ]
          ]
        ]
      }
    },
    {
      "type": "Feature",
      "properties": {
        "id": 32,
        "district": "pangyo",
        "name": "pangyo_residential_32",
        "useType": "residential",
        "useTypeName": "주거시설",
        "floors": 2,
        "workers": 9,
        "parking": 68,
        "totalArea": 10649,
        "color": "#50B86C"
      },
      "geometry": {
        "type": "Polygon",
        "coordinates": [
          [
            [
              127.12237975480994,
              37.41392450535924
            ],
            [
              127.12227687044313,
              37.41443758021746
            ],
            [
              127.1202640416972,
              37.41403395761211
            ],
            [
              127.12036692606401,
              37.41352088275389
            ],
            [
              127.12237975480994,
              37.41392450535924
            ]
          ]
        ]
      }
    },
    {
      "type": "Feature",
      "properties": {
        "id": 33,
        "district": "pangyo",
        "name": "pangyo_mixed_33",
        "useType": "mixed",
        "useTypeName": "복합시설",
        "floors": 7,
        "workers": 2534,
        "parking": 20,
        "totalArea": 75895,
        "color": "#9B59B6"
      },
      "geometry": {
        "type": "Polygon",
        "coordinates": [
          [
            [
              127.08806070416978,
              37.392582178784075
            ],
            [
              127.08542890735669,
              37.393631166699144
            ],
            [
              127.0844284184324,
              37.39112104858945
            ],
            [
              127.08706021524549,
              37.39007206067438
            ],
            [
              127.08806070416978,
              37.392582178784075
            ]
          ]
        ]
      }
    },
    {
      "type": "Feature",
      "properties": {
        "id": 34,
        "district": "pangyo",
        "name": "pangyo_mixed_34",
        "useType": "mixed",
        "useTypeName": "복합시설",
        "floors": 10,
        "workers": 264,
        "parking": 85,
        "totalArea": 36860,
        "color": "#9B59B6"
      },
      "geometry": {
        "type": "Polygon",
        "coordinates": [
          [
            [
              127.09863023012825,
              37.40188470221677
            ],
            [
              127.09759765125548,
              37.4026002807346
            ],
            [
              127.0959118580265,
              37.4001676832925
            ],
            [
              127.09694443689926,
              37.39945210477467
            ],
            [
              127.09863023012825,
              37.40188470221677
            ]
          ]
        ]
      }
    },
    {
      "type": "Feature",
      "properties": {
        "id": 35,
        "district": "pangyo",
        "name": "pangyo_mixed_35",
        "useType": "mixed",
        "useTypeName": "복합시설",
        "floors": 3,
        "workers": 1076,
        "parking": 95,
        "totalArea": 60928,
        "color": "#9B59B6"
      },
      "geometry": {
        "type": "Polygon",
        "coordinates": [
          [
            [
              127.11543646333268,
              37.39123873722936
            ],
            [
              127.11740567485393,
              37.3921225960652
            ],
            [
              127.11623974190863,
              37.39472026041584
            ],
            [
              127.11427053038739,
              37.393836401579996
            ],
            [
              127.11543646333268,
              37.39123873722936
            ]
          ]
        ]
      }
    },
    {
      "type": "Feature",
      "properties": {
        "id": 36,
        "district": "pangyo",
        "name": "pangyo_mixed_36",
        "useType": "mixed",
        "useTypeName": "복합시설",
        "floors": 12,
        "workers": 2362,
        "parking": 64,
        "totalArea": 45759,
        "color": "#9B59B6"
      },
      "geometry": {
        "type": "Polygon",
        "coordinates": [
          [
            [
              127.10278543426033,
              37.39056672054455
            ],
            [
              127.104399767443,
              37.39176770865473
            ],
            [
              127.10303048254637,
              37.39360826146822
            ],
            [
              127.1014161493637,
              37.39240727335804
            ],
            [
              127.10278543426033,
              37.39056672054455
            ]
          ]
        ]
      }
    },
    {
      "type": "Feature",
      "properties": {
        "id": 37,
        "district": "pangyo",
        "name": "pangyo_public_37",
        "useType": "public",
        "useTypeName": "공공시설",
        "floors": 5,
        "workers": 140,
        "parking": 0,
        "totalArea": 18946,
        "color": "#F1C40F"
      },
      "geometry": {
        "type": "Polygon",
        "coordinates": [
          [
            [
              127.09978200723195,
              37.41161909960805
            ],
            [
              127.10040389948816,
              37.414159341946934
            ],
            [
              127.09969411427868,
              37.414333108803184
            ],
            [
              127.09907222202247,
              37.4117928664643
            ],
            [
              127.09978200723195,
              37.41161909960805
            ]
          ]
        ]
      }
    },
    {
      "type": "Feature",
      "properties": {
        "id": 38,
        "district": "pangyo",
        "name": "pangyo_public_38",
        "useType": "public",
        "useTypeName": "공공시설",
        "floors": 7,
        "workers": 1198,
        "parking": 1,
        "totalArea": 26432,
        "color": "#F1C40F"
      },
      "geometry": {
        "type": "Polygon",
        "coordinates": [
          [
            [
              127.09232074091827,
              37.38588472318324
            ],
            [
              127.0928567052529,
              37.38878511320979
            ],
            [
              127.09196779986502,
              37.38894937442308
            ],
            [
              127.09143183553039,
              37.386048984396524
            ],
            [
              127.09232074091827,
              37.38588472318324
            ]
          ]
        ]
      }
    },
    {
      "type": "Feature",
      "properties": {
        "id": 39,
        "district": "pangyo",
        "name": "pangyo_public_39",
        "useType": "public",
        "useTypeName": "공공시설",
        "floors": 7,
        "workers": 311,
        "parking": 5,
        "totalArea": 8324,
        "color": "#F1C40F"
      },
      "geometry": {
        "type": "Polygon",
        "coordinates": [
          [
            [
              127.11041028031758,
              37.38784464147396
            ],
            [
              127.11031335263665,
              37.38842669648588
            ],
            [
              127.10890964281049,
              37.38819294136762
            ],
            [
              127.10900657049142,
              37.3876108863557
            ],
            [
              127.11041028031758,
              37.38784464147396
            ]
          ]
        ]
      }
    }
  ]
}